NORAD_CAT_ID,OBJECT_NAME,OBJECT_TYPE,EPOCH,MEAN_MOTION,ECCENTRICITY,INCLINATION,RA_OF_ASC_NODE,ARG_OF_PERICENTER,MEAN_ANOMALY,BSTAR,MEAN_MOTION_DOT,MEAN_MOTION_DDOT,TLE_LINE0,TLE_LINE1,TLE_LINE2,SEMIMAJOR_AXIS,PERIOD,APOGEE,PERIGEE,DECAYED
56769.0,STARLINK-5978,PAYLOAD,2024-03-20 06:16:19,14.98337424,0.000273,70.0018,18.3933,269.2034,90.8812,3.6391e-05,3.41e-06,0.0,0 STARLINK-5978,1 56769U 23078C   24080.26134180  .00000341  00000-0  36391-4 0  9996,2 56769  70.0018  18.3933 0002730 269.2034  90.8812 14.98337424 44423,6950.17,96.107,573.932,570.138,0.0
56769.0,STARLINK-5978,PAYLOAD,2024-03-20 20:41:33,14.98327541,0.0002643,70.0017,16.8788,264.7028,95.383,7.4256e-06,-4e-08,0.0,0 STARLINK-5978,1 56769U 23078C   24080.86218781 -.00000004  00000-0  74256-5 0  9992,2 56769  70.0017  16.8788 0002643 264.7028  95.3830 14.98327541 44776,6950.2,96.107,573.902,570.229,0.0
56769.0,STARLINK-5978,PAYLOAD,2024-03-20 22:17:41,14.98327331,0.0002635,70.0017,16.7105,264.0335,96.0524,3.8013e-06,-4.8e-07,0.0,0 STARLINK-5978,1 56769U 23078C   24080.92894807 -.00000048  00000-0  38013-5 0  9997,2 56769  70.0017  16.7105 0002635 264.0335  96.0524 14.98327331 44521,6950.201,96.107,573.898,570.235,0.0
56769.0,STARLINK-5978,PAYLOAD,2024-03-21 12:42:53,14.98336986,0.0002691,70.0023,15.1952,270.4298,89.6553,-0.00017401,-2.169e-05,0.0,0 STARLINK-5978,1 56769U 23078C   24081.52978722 -.00002169  00000-0 -17401-3 0  9996,2 56769  70.0023  15.1952 0002691 270.4298  89.6553 14.98336986 44618,6950.171,96.107,573.907,570.166,0.0
56769.0,STARLINK-5978,PAYLOAD,2024-03-21 20:43:33,14.9833073,0.0002944,70.0013,14.3529,269.2303,90.8519,-3.2276e-05,-4.78e-06,0.0,0 STARLINK-5978,1 56769U 23078C   24081.86358764 -.00000478  00000-0 -32276-4 0  9990,2 56769  70.0013  14.3529 0002944 269.2303  90.8519 14.98330730 44923,6950.191,96.107,574.102,570.009,0.0
56769.0,STARLINK-5978,PAYLOAD,2024-03-21 22:19:42,14.98330521,0.0002953,70.0013,14.1845,269.3678,90.7143,-3.3603e-05,-4.94e-06,0.0,0 STARLINK-5978,1 56769U 23078C   24081.93034779 -.00000494  00000-0 -33603-4 0  9998,2 56769  70.0013  14.1845 0002953 269.3678  90.7143 14.98330521 44670,6950.191,96.107,574.109,570.004,0.0
56769.0,STARLINK-5978,PAYLOAD,2024-03-22 04:44:13,14.9833521,0.000288,70.0013,13.5117,267.463,92.6199,9.4087e-06,1.9e-07,0.0,0 STARLINK-5978,1 56769U 23078C   24082.19738335  .00000019  00000-0  94087-5 0  9991,2 56769  70.0013  13.5117 0002880 267.4630  92.6199 14.98335210 44718,6950.177,96.107,574.043,570.04,0.0
56769.0,STARLINK-5978,PAYLOAD,2024-03-22 20:45:37,14.98301636,0.0003145,70.0021,11.8294,275.4527,84.6273,-0.00017981,-2.236e-05,0.0,0 STARLINK-5978,1 56769U 23078C   24082.86501580 -.00002236  00000-0 -17981-3 0  9996,2 56769  70.0021  11.8294 0003145 275.4527  84.6273 14.98301636 45072,6950.281,96.109,574.331,569.96,0.0
56769.0,STARLINK-5978,PAYLOAD,2024-03-22 22:21:46,14.98293354,0.0002954,70.0013,11.6605,267.9542,92.1278,-0.00028288,-3.463e-05,0.0,0 STARLINK-5978,1 56769U 23078C   24082.93178392 -.00003463  00000-0 -28288-3 0  9990,2 56769  70.0013  11.6605 0002954 267.9542  92.1278 14.98293354 44825,6950.306,96.109,574.224,570.118,0.0
56769.0,STARLINK-5978,PAYLOAD,2024-03-23 20:47:37,14.98325136,0.0002999,70.0007,9.3028,272.0759,88.0056,5.003e-05,5.04e-06,0.0,0 STARLINK-5978,1 56769U 23078C   24083.86640565  .00000504  00000-0  50030-4 0  9991,2 56769  70.0007   9.3028 0002999 272.0759  88.0056 14.98325136 45224,6950.208,96.107,574.157,569.989,0.0
56769.0,STARLINK-5978,PAYLOAD,2024-03-23 22:23:45,14.98326319,0.0002835,70.0008,9.1348,273.9804,86.103,5.5897e-05,5.74e-06,0.0,0 STARLINK-5978,1 56769U 23078C   24083.93316500  .00000574  00000-0  55897-4 0  9991,2 56769  70.0008   9.1348 0002835 273.9804  86.1030 14.98326319 44974,6950.204,96.107,574.04,570.099,0.0
56769.0,STARLINK-5978,PAYLOAD,2024-03-24 04:48:16,14.98336567,0.000302,70.0009,8.463,264.4993,95.5822,0.00013349,1.5e-05,0.0,0 STARLINK-5978,1 56769U 23078C   24084.20019667  .00001500  00000-0  13349-3 0  9991,2 56769  70.0009   8.4630 0003020 264.4993  95.5822 14.98336567 45275,6950.173,96.107,574.137,569.939,0.0
56769.0,STARLINK-5978,PAYLOAD,2024-03-24 22:25:45,14.98335522,0.0002556,70.0015,6.6099,261.8523,98.2346,0.00057756,6.806e-05,0.0,0 STARLINK-5978,1 56769U 23078C   24084.93455155  .00006806  00000-0  57756-3 0  9991,2 56769  70.0015   6.6099 0002556 261.8523  98.2346 14.98335522 45129,6950.176,96.107,573.817,570.264,0.0
56769.0,STARLINK-5978,PAYLOAD,2024-03-25 04:50:16,14.98343299,0.0002605,70.0016,5.9382,259.9161,100.1704,0.00062948,7.428e-05,0.0,0 STARLINK-5978,1 56769U 23078C   24085.20158323  .00007428  00000-0  62948-3 0  9999,2 56769  70.0016   5.9382 0002605 259.9161 100.1704 14.98343299 45422,6950.152,96.106,573.827,570.206,0.0
56769.0,STARLINK-5978,PAYLOAD,2024-03-25 20:51:37,14.98345583,0.0002725,70.001,4.255,261.1154,98.9697,7.4083e-05,7.91e-06,0.0,0 STARLINK-5978,1 56769U 23078C   24085.86918957  .00000791  00000-0  74083-4 0  9998,2 56769  70.0010   4.2550 0002725 261.1154  98.9697 14.98345583 45529,6950.145,96.106,573.904,570.116,0.0
56769.0,STARLINK-5978,PAYLOAD,2024-03-25 22:27:46,14.98345188,0.0002996,70.0005,4.0862,260.9809,99.1011,4.7416e-05,4.73e-06,0.0,0 STARLINK-5978,1 56769U 23078C   24085.93594931  .00000473  00000-0  47416-4 0  9995,2 56769  70.0005   4.0862 0002996 260.9809  99.1011 14.98345188 45277,6950.146,96.106,574.093,569.929,0.0
56769.0,STARLINK-5978,PAYLOAD,2024-03-26 11:16:51,14.98335416,0.0002425,70.0022,2.7385,272.8208,87.2673,-3.002e-05,-4.51e-06,0.0,0 STARLINK-5978,1 56769U 23078C   24086.47003512 -.00000451  00000-0 -30020-4 0  9996,2 56769  70.0022   2.7385 0002425 272.8208  87.2673 14.98335416 45616,6950.176,96.107,573.727,570.356,0.0
56769.0,STARLINK-5978,PAYLOAD,2024-03-26 22:29:47,14.98338419,0.0002368,70.002,1.5616,259.9361,100.1531,-0.00021149,-2.616e-05,0.0,0 STARLINK-5978,1 56769U 23078C   24086.93735389 -.00002616  00000-0 -21149-3 0  9997,2 56769  70.0020   1.5616 0002368 259.9361 100.1531 14.98338419 45423,6950.167,96.106,573.678,570.386,0.0
56769.0,STARLINK-5978,PAYLOAD,2024-03-27 11:18:52,14.98352384,0.0002289,70.0031,0.2149,272.4952,87.5945,-0.00097662,-0.00011733,0.0,0 STARLINK-5978,1 56769U 23078C   24087.47144033 -.00011733  00000-0 -97662-3 0  9990,2 56769  70.0031   0.2149 0002289 272.4952  87.5945 14.98352384 45761,6950.124,96.106,573.58,570.398,0.0
56769.0,STARLINK-5978,PAYLOAD,2024-03-27 20:55:41,14.98310177,0.0002792,70.0019,359.2045,267.3535,92.7304,-0.00011404,-1.453e-05,0.0,0 STARLINK-5978,1 56769U 23078C   24087.87201136 -.00001453  00000-0 -11404-3 0  9990,2 56769  70.0019 359.2045 0002792 267.3535  92.7304 14.98310177 45826,6950.254,96.108,574.06,570.179,0.0
56769.0,STARLINK-5978,PAYLOAD,2024-03-27 22:31:49,14.98312799,0.0002731,70.0017,359.0364,268.9088,91.1758,-9.2395e-05,-1.195e-05,0.0,0 STARLINK-5978,1 56769U 23078C   24087.93877019 -.00001195  00000-0 -92395-4 0  9998,2 56769  70.0017 359.0364 0002731 268.9088  91.1758 14.98312799 45579,6950.246,96.108,574.009,570.213,0.0
56769.0,STARLINK-5978,PAYLOAD,2024-03-28 03:20:13,14.98320625,0.0002557,70.0021,358.5325,262.1136,97.9733,2.6266e-05,2.2e-06,0.0,0 STARLINK-5978,1 56769U 23078C   24088.13904393  .00000220  00000-0  26266-4 0  9997,2 56769  70.0021 358.5325 0002557 262.1136  97.9733 14.98320625 45867,6950.222,96.108,573.864,570.31,0.0
56769.0,STARLINK-5978,PAYLOAD,2024-03-28 11:20:53,14.98325478,0.000283,70.0013,357.6904,268.4182,91.6653,6.1331e-05,6.39e-06,0.0,0 STARLINK-5978,1 56769U 23078C   24088.47284141  .00000639  00000-0  61331-4 0  9992,2 56769  70.0013 357.6904 0002830 268.4182  91.6653 14.98325478 45655,6950.207,96.107,574.039,570.105,0.0
56769.0,STARLINK-5978,PAYLOAD,2024-03-28 22:33:49,14.98325291,0.0002924,70.001,356.5117,268.145,91.9375,0.00014985,1.695e-05,0.0,0 STARLINK-5978,1 56769U 23078C   24088.94016098  .00001695  00000-0  14985-3 0  9993,2 56769  70.0010 356.5117 0002924 268.1450  91.9375 14.98325291 45720,6950.207,96.107,574.105,570.04,0.0
56769.0,STARLINK-5978,PAYLOAD,2024-03-29 03:22:14,14.98326942,0.0002907,70.0009,356.0064,267.1854,92.8973,0.00017798,2.031e-05,0.0,0 STARLINK-5978,1 56769U 23078C   24089.14044026  .00002031  00000-0  17798-3 0  9998,2 56769  70.0009 356.0064 0002907 267.1854  92.8973 14.98326942 46013,6950.202,96.107,574.088,570.047,0.0
56769.0,STARLINK-5978,PAYLOAD,2024-03-29 11:22:54,14.98331037,0.0002965,70.0009,355.165,268.8183,91.2636,0.00017722,2.022e-05,0.0,0 STARLINK-5978,1 56769U 23078C   24089.47423834  .00002022  00000-0  17722-3 0  9999,2 56769  70.0009 355.1650 0002965 268.8183  91.2636 14.98331037 45807,6950.19,96.107,574.115,569.994,0.0
56769.0,STARLINK-5978,PAYLOAD,2024-03-29 17:47:26,14.98305688,0.0003165,70.0008,354.4915,265.4431,94.6366,0.00072275,8.536e-05,0.0,0 STARLINK-5978,1 56769U 23078C   24089.74128310  .00008536  00000-0  72275-3 0  9990,2 56769  70.0008 354.4915 0003165 265.4431  94.6366 14.98305688 46108,6950.268,96.109,574.333,569.933,0.0
56769.0,STARLINK-5978,PAYLOAD,2024-03-29 22:35:48,14.98396447,0.0002604,70.0008,353.9865,279.6676,80.4189,-0.00095522,-0.00011491,0.0,0 STARLINK-5978,1 56769U 23078C   24089.94153669 -.00011491  00000-0 -95522-3 0  9993,2 56769  70.0008 353.9865 0002604 279.6676  80.4189 14.98396447 45873,6949.987,96.103,573.662,570.043,0.0
56769.0,STARLINK-5978,PAYLOAD,2024-03-30 03:24:14,14.98339988,0.0003051,70.0009,353.4819,268.4432,91.6377,0.00019809,2.272e-05,0.0,0 STARLINK-5978,1 56769U 23078C   24090.14183334  .00002272  00000-0  19809-3 0  9998,2 56769  70.0009 353.4819 0003051 268.4432  91.6377 14.98339988 46164,6950.162,96.106,574.147,569.907,0.0
56769.0,STARLINK-5978,PAYLOAD,2024-03-30 11:24:54,14.98339899,0.0003029,70.0009,352.6402,268.5571,91.5241,0.00015832,1.797e-05,0.0,0 STARLINK-5978,1 56769U 23078C   24090.47563244  .00001797  00000-0  15832-3 0  9999,2 56769  70.0009 352.6402 0003029 268.5571  91.5241 14.98339899 45959,6950.162,96.106,574.132,569.922,0.0
